
# Worst residual: 8.11 km
# MJD 60336.000000 (2024 Jan 27  0:00)
2023-098C = NORAD 57770 = Chandrayaan-3 PM
1 57770U 23098C   24027.49919926  .00000000  00000-0  00000-0 0 22403
2 57770 027.5742 014.9232 4118610 086.1430 167.0759 00.08470667    02

# Worst residual: 4.05 km
# MJD 60337.000000 (2024 Jan 28  0:00)
2023-098C = NORAD 57770 = Chandrayaan-3 PM
1 57770U 23098C   24028.49919926  .00000000  00000-0  00000-0 0 22404
2 57770 027.5804 014.9017 4108039 086.1431 197.5578 00.08461498    06

# Worst residual: 5.86 km
# MJD 60338.000000 (2024 Jan 29  0:00)
2023-098C = NORAD 57770 = Chandrayaan-3 PM
1 57770U 23098C   24029.49919926  .00000000  00000-0  00000-0 0 22405
2 57770 027.5886 014.8808 4095121 086.1987 227.8035 00.08450236    09

# Worst residual: 5.22 km
# MJD 60339.000000 (2024 Jan 30  0:00)
2023-098C = NORAD 57770 = Chandrayaan-3 PM
1 57770U 23098C   24030.49919926  .00000000  00000-0  00000-0 0 22407
2 57770 027.5983 014.8611 4082038 086.2067 258.0216 00.08438423    03

# Worst residual: 7.93 km
# MJD 60340.000000 (2024 Jan 31  0:00)
2023-098C = NORAD 57770 = Chandrayaan-3 PM
1 57770U 23098C   24031.49919926  .00000000  00000-0  00000-0 0 22408
2 57770 027.6087 014.8475 4076261 086.0516 288.4330 00.08417311    02

# Worst residual: 33.29 km
# MJD 60341.000000 (2024 Feb  1  0:00)
2023-098C = NORAD 57770 = Chandrayaan-3 PM
1 57770U 23098C   24032.49919926  .00000000  00000-0  00000-0 0 22409
2 57770 027.6166 014.8412 4097276 085.7194 319.1126 00.08361848    06

# Worst residual: 56.01 km
# MJD 60342.000000 (2024 Feb  2  0:00)
2023-098C = NORAD 57770 = Chandrayaan-3 PM
1 57770U 23098C   24033.49919926  .00000000  00000-0  00000-0 0 22400
2 57770 027.6269 014.8485 4164699 085.8312 349.3852 00.08245962    06

# Worst residual: 57.58 km
# MJD 60343.000000 (2024 Feb  3  0:00)
2023-098C = NORAD 57770 = Chandrayaan-3 PM
1 57770U 23098C   24034.49919926  .00000000  00000-0  00000-0 0 22401
2 57770 027.6292 014.8337 4164001 087.2177 018.3438 00.08231575    08

# Worst residual: 43.95 km
# MJD 60344.000000 (2024 Feb  4  0:00)
2023-098C = NORAD 57770 = Chandrayaan-3 PM
1 57770U 23098C   24035.49919926  .00000000  00000-0  00000-0 0 22402
2 57770 027.6313 014.8241 4090607 087.7031 048.2835 00.08333284    03

# Worst residual: 28.86 km
# MJD 60345.000000 (2024 Feb  5  0:00)
2023-098C = NORAD 57770 = Chandrayaan-3 PM
1 57770U 23098C   24036.49919926  .00000000  00000-0  00000-0 0 22403
2 57770 027.6453 014.8229 4046794 087.9976 078.4111 00.08349538    03

# Worst residual: 53.49 km
# MJD 60346.000000 (2024 Feb  6  0:00)
2023-098C = NORAD 57770 = Chandrayaan-3 PM
1 57770U 23098C   24037.49919926  .00000000  00000-0  00000-0 0 22404
2 57770 027.6725 014.8489 3976112 089.2758 107.0726 00.08244791    07

# Worst residual: 97.18 km
# MJD 60347.000000 (2024 Feb  7  0:00)
2023-098C = NORAD 57770 = Chandrayaan-3 PM
1 57770U 23098C   24038.49919926  .00000000  00000-0  00000-0 0 22405
2 57770 027.6938 014.8765 3812008 091.4765 133.8915 00.08039087    03

# Worst residual: 120.37 km
# MJD 60348.000000 (2024 Feb  8  0:00)
2023-098C = NORAD 57770 = Chandrayaan-3 PM
1 57770U 23098C   24039.49919926  .00000000  00000-0  00000-0 0 22406
2 57770 027.6985 014.7851 3534623 093.7371 159.7557 00.07768792    02

# Worst residual: 116.55 km
# MJD 60349.000000 (2024 Feb  9  0:00)
2023-098C = NORAD 57770 = Chandrayaan-3 PM
1 57770U 23098C   24040.49919926  .00000000  00000-0  00000-0 0 22408
2 57770 027.7139 014.4991 3204491 094.9606 185.7833 00.07481899    03

# Worst residual: 102.69 km
# MJD 60350.000000 (2024 Feb 10  0:00)
2023-098C = NORAD 57770 = Chandrayaan-3 PM
1 57770U 23098C   24041.49919926  .00000000  00000-0  00000-0 0 22409
2 57770 027.7782 014.1069 2880417 094.4404 212.5062 00.07197837    07

# Worst residual: 91.73 km
# MJD 60351.000000 (2024 Feb 11  0:00)
2023-098C = NORAD 57770 = Chandrayaan-3 PM
1 57770U 23098C   24042.49919926  .00000000  00000-0  00000-0 0 22400
2 57770 027.9090 013.7008 2596394 091.7609 240.1350 00.06916057    03

# Worst residual: 87.31 km
# MJD 60352.000000 (2024 Feb 12  0:00)
2023-098C = NORAD 57770 = Chandrayaan-3 PM
1 57770U 23098C   24043.49919926  .00000000  00000-0  00000-0 0 22401
2 57770 028.1163 013.3544 2378515 086.6342 268.7531 00.06632085    01

# Worst residual: 83.53 km
# MJD 60353.000000 (2024 Feb 13  0:00)
2023-098C = NORAD 57770 = Chandrayaan-3 PM
1 57770U 23098C   24044.49919926  .00000000  00000-0  00000-0 0 22402
2 57770 028.3877 013.1625 2254883 080.0715 297.2143 00.06382150    07

# Worst residual: 55.84 km
# MJD 60354.000000 (2024 Feb 14  0:00)
2023-098C = NORAD 57770 = Chandrayaan-3 PM
1 57770U 23098C   24045.49919926  .00000000  00000-0  00000-0 0 22403
2 57770 028.6182 013.1861 2185584 076.3259 322.1054 00.06299576    01

# Worst residual: 23.97 km
# MJD 60355.000000 (2024 Feb 15  0:00)
2023-098C = NORAD 57770 = Chandrayaan-3 PM
1 57770U 23098C   24046.49919926  .00000000  00000-0  00000-0 0 22404
2 57770 028.7116 013.2768 2106623 076.8621 343.8284 00.06379229    00

# Worst residual: 45.14 km
# MJD 60356.000000 (2024 Feb 16  0:00)
2023-098C = NORAD 57770 = Chandrayaan-3 PM
1 57770U 23098C   24047.49919926  .00000000  00000-0  00000-0 0 22562
2 57770 028.7300 013.3076 2057313 078.8666 005.3477 00.06438656    04

# Worst residual: 44.15 km
# MJD 60357.000000 (2024 Feb 17  0:00)
2023-098C = NORAD 57770 = Chandrayaan-3 PM
1 57770U 23098C   24048.49919926  .00000000  00000-0  00000-0 0 22563
2 57770 028.7355 013.3115 2026213 081.3819 026.7757 00.06439204    00

# Worst residual: 48.54 km
# MJD 60358.000000 (2024 Feb 18  0:00)
2023-098C = NORAD 57770 = Chandrayaan-3 PM
1 57770U 23098C   24049.49919926  .00000000  00000-0  00000-0 0 22564
2 57770 028.7380 013.3089 1965663 083.5175 048.5901 00.06441862    03

# Worst residual: 48.07 km
# MJD 60359.000000 (2024 Feb 19  0:00)
2023-098C = NORAD 57770 = Chandrayaan-3 PM
1 57770U 23098C   24050.49919926  .00000000  00000-0  00000-0 0 22566
2 57770 028.7376 013.3006 1887199 084.3815 071.6816 00.06464756    03

# Worst residual: 38.50 km
# MJD 60360.000000 (2024 Feb 20  0:00)
2023-098C = NORAD 57770 = Chandrayaan-3 PM
1 57770U 23098C   24051.49919926  .00000000  00000-0  00000-0 0 22567
2 57770 028.7369 013.2858 1817324 084.0392 096.0569 00.06494076    03

# Worst residual: 27.62 km
# MJD 60361.000000 (2024 Feb 21  0:00)
2023-098C = NORAD 57770 = Chandrayaan-3 PM
1 57770U 23098C   24052.49919926  .00000000  00000-0  00000-0 0 22568
2 57770 028.7383 013.2670 1764349 083.0687 121.1321 00.06513977    03

# Worst residual: 28.21 km
# MJD 60362.000000 (2024 Feb 22  0:00)
2023-098C = NORAD 57770 = Chandrayaan-3 PM
1 57770U 23098C   24053.49919926  .00000000  00000-0  00000-0 0 22569
2 57770 028.7421 013.2469 1723456 081.9075 146.3895 00.06516919    08

# Worst residual: 26.30 km
# MJD 60363.000000 (2024 Feb 23  0:00)
2023-098C = NORAD 57770 = Chandrayaan-3 PM
1 57770U 23098C   24054.49919926  .00000000  00000-0  00000-0 0 22560
2 57770 028.7482 013.2273 1688619 080.6978 171.5808 00.06502229    00

# Worst residual: 21.12 km
# MJD 60364.000000 (2024 Feb 24  0:00)
2023-098C = NORAD 57770 = Chandrayaan-3 PM
1 57770U 23098C   24055.49919926  .00000000  00000-0  00000-0 0 22561
2 57770 028.7561 013.2097 1658049 079.4061 196.6496 00.06473421    07

# Worst residual: 18.86 km
# MJD 60365.000000 (2024 Feb 25  0:00)
2023-098C = NORAD 57770 = Chandrayaan-3 PM
1 57770U 23098C   24056.49919926  .00000000  00000-0  00000-0 0 22562
2 57770 028.7655 013.1955 1635629 077.9742 221.6073 00.06435923    06

# Worst residual: 16.08 km
# MJD 60366.000000 (2024 Feb 26  0:00)
2023-098C = NORAD 57770 = Chandrayaan-3 PM
1 57770U 23098C   24057.49919926  .00000000  00000-0  00000-0 0 22563
2 57770 028.7744 013.1874 1628333 076.4827 246.3887 00.06396999    03

# Worst residual: 15.64 km
# MJD 60367.000000 (2024 Feb 27  0:00)
2023-098C = NORAD 57770 = Chandrayaan-3 PM
1 57770U 23098C   24058.49919926  .00000000  00000-0  00000-0 0 22564
2 57770 028.7814 013.1840 1642835 075.2862 270.7197 00.06364701    04

# Worst residual: 25.56 km
# MJD 60368.000000 (2024 Feb 28  0:00)
2023-098C = NORAD 57770 = Chandrayaan-3 PM
1 57770U 23098C   24059.49919926  .00000000  00000-0  00000-0 0 22565
2 57770 028.7847 013.1814 1677577 074.8923 294.2265 00.06345299    03

# Worst residual: 29.30 km
# MJD 60369.000000 (2024 Feb 29  0:00)
2023-098C = NORAD 57770 = Chandrayaan-3 PM
1 57770U 23098C   24060.49919926  .00000000  00000-0  00000-0 0 22567
2 57770 028.7843 013.1729 1722116 075.5643 316.7807 00.06337052    01

# Worst residual: 37.21 km
# MJD 60370.000000 (2024 Mar  1  0:00)
2023-098C = NORAD 57770 = Chandrayaan-3 PM
1 57770U 23098C   24061.49919926  .00000000  00000-0  00000-0 0 22737
2 57770 028.7905 013.1417 1760406 077.3237 338.4234 00.06336957    05

# Worst residual: 46.14 km
# MJD 60371.000000 (2024 Mar  2  0:00)
2023-098C = NORAD 57770 = Chandrayaan-3 PM
1 57770U 23098C   24062.49919926  .00000000  00000-0  00000-0 0 22738
2 57770 028.7958 013.1271 1779307 079.7286 359.5204 00.06331894    07

# Worst residual: 38.18 km
# MJD 60372.000000 (2024 Mar  3  0:00)
2023-098C = NORAD 57770 = Chandrayaan-3 PM
1 57770U 23098C   24063.49919926  .00000000  00000-0  00000-0 0 22739
2 57770 028.8030 013.1216 1766490 082.2836 020.4451 00.06327833    03

# Worst residual: 38.83 km
# MJD 60373.000000 (2024 Mar  4  0:00)
2023-098C = NORAD 57770 = Chandrayaan-3 PM
1 57770U 23098C   24064.49919926  .00000000  00000-0  00000-0 0 22730
2 57770 028.8080 013.1178 1711366 084.1702 042.0054 00.06345662    09

# Worst residual: 41.06 km
# MJD 60374.000000 (2024 Mar  5  0:00)
2023-098C = NORAD 57770 = Chandrayaan-3 PM
1 57770U 23098C   24065.49919926  .00000000  00000-0  00000-0 0 22731
2 57770 028.8066 013.1141 1636776 084.5722 065.0946 00.06387191    08

# Worst residual: 33.67 km
# MJD 60375.000000 (2024 Mar  6  0:00)
2023-098C = NORAD 57770 = Chandrayaan-3 PM
1 57770U 23098C   24066.49919926  .00000000  00000-0  00000-0 0 22732
2 57770 028.8072 013.1008 1571284 083.2632 090.0888 00.06447130    08
